ONEWEB-0377             
1 49303U 21090AA  24039.62507087  .00001642  00000+0  40066-2 0  9994
2 49303  87.9147  85.5208 0001795  97.1406 262.9932 13.20764235118336
ONEWEB-0378             
1 49304U 21090AB  24039.60046859  .00000086  00000+0  17981-3 0  9990
2 49304  87.9150  85.5402 0002122 105.3283 254.8085 13.20771908116317
ONEWEB-0379             
1 49305U 21090AC  24039.66806596 -.00000060  00000+0 -19640-3 0  9997
2 49305  87.8942 100.7914 0002012 103.1806 256.9548 13.14502491115946
ONEWEB-0380             
1 49306U 21090AD  24039.57431998 -.00000004  00000+0 -42434-4 0  9994
2 49306  87.9184 116.0927 0001775 102.8851 257.2480 13.19723955113044
ONEWEB-0381             
1 49307U 21090AE  24039.54602232  .00000114  00000+0  24826-3 0  9997
2 49307  87.9150  85.5432 0001813  97.9705 262.1634 13.20771888116357
ONEWEB-0382             
1 49308U 21090AF  24039.60915035  .00000104  00000+0  22489-3 0  9995
2 49308  87.9146  85.5281 0001977 113.2891 246.8451 13.20771831116358
ONEWEB-0383             
1 49309U 21090AG  24039.66171368 -.00000127  00000+0 -37831-3 0  9999
2 49309  87.8938 100.7840 0002112 107.5037 252.6323 13.14501643115962
ONEWEB-0384             
1 49310U 21090AH  24039.60599376  .00000097  00000+0  20600-3 0  9998
2 49310  87.9148  85.5382 0001998 116.5654 243.5684 13.20772900116362
